satname,norad_id,inclination_deg,eccentricity,mean_motion_rev_per_day,perigee_km,apogee_km,l1,l2
STARLINK-1365,45590,53.0553,0.0001008,15.06395694,546.5266787746086,547.9228317044644,1 45590U 20025BM  25354.55309066 -.00001007  00000+0 -48726-4 0  9995,2 45590  53.0553 101.8749 0001008  89.1675 270.9430 15.06395694313179
STARLINK-1443,45660,53.0556,0.0001217,15.06393075,546.3899646447144,548.0755996496891,1 45660U 20035D   25354.47199609  .00001563  00000+0  12379-3 0  9994,2 45660  53.0556  62.2419 0001217  92.7227 267.3901 15.06393075306793
STARLINK-1446,45663,53.0259,0.0003452,15.38495319,448.2008323980699,452.9153634936911,1 45663U 20035G   25354.29787127  .00050223  00000+0  13041-2 0  9998,2 45663  53.0259  15.4180 0003452  30.8068 329.3137 15.38495319307431
STARLINK-1448,45665,53.0566,0.0001274,15.06391179,546.3563003141762,548.1208860153138,1 45665U 20035J   25354.47568258  .00000149  00000+0  28921-4 0  9999,2 45665  53.0566  62.2211 0001274  97.9372 262.1762 15.06391179306780
STARLINK-1451,45668,53.0563,0.0001149,15.06391619,546.4415191145763,548.0329701159899,1 45668U 20035M   25354.47941095 -.00000362  00000+0 -54268-5 0  9999,2 45668  53.0563  62.5193 0001149 101.4181 258.6937 15.06391619306796
STARLINK-1452,45669,53.0377,0.0004166,15.32219553,466.33907529436055,472.0442695442216,1 45669U 20035N   25354.81317847  .00008682  00000+0  28654-3 0  9999,2 45669  53.0377  33.7881 0004166 167.8320 192.2781 15.32219553307221
STARLINK-1453,45670,53.0537,0.0001345,15.33196515,465.36201642808555,467.20316529802676,1 45670U 20035P   25354.91668980  .01956606  00000+0  54479-1 0  9990,2 45670  53.0537  27.9351 0001345  69.8139 199.4950 15.33196515  5745
STARLINK-1454,45671,53.055,0.0001317,15.06388232,546.3355522430093,548.1596985533397,1 45671U 20035Q   25354.63418150 -.00000079  00000+0  13609-4 0  9999,2 45671  53.0550  61.5134 0001317  90.2372 269.8767 15.06388232306808
STARLINK-1456,45673,53.0565,4.34e-05,15.24597979,491.69472710684477,492.2910543813623,1 45673U 20035S   25354.91668980  .01562877  00000+0  56895-1 0  9990,2 45673  53.0565  59.6444 0000434 111.9345 211.9994 15.24597979  5792
STARLINK-1457,45674,53.0515,0.0007853,15.49257441,413.55936992739043,424.2347916546805,1 45674U 20035T   25354.71208476  .00065697  00000+0  11802-2 0  9996,2 45674  53.0515  49.7663 0007853 358.2410   1.8568 15.49257441306962
STARLINK-1458,45675,53.0532,0.0001665,15.0638463,546.1055867968753,548.4117435533772,1 45675U 20035U   25354.57888920  .00003281  00000+0  23913-3 0  9997,2 45675  53.0532  61.7566 0001665 101.0388 259.0788 15.06384630306775
STARLINK-1460,45676,53.0566,0.0001139,15.06389974,546.4534856539831,548.031087055414,1 45676U 20035V   25354.48306261  .00001049  00000+0  89344-4 0  9992,2 45676  53.0566  62.1899 0001139  80.6314 279.4804 15.06389974306753
STARLINK-1392,45677,53.0576,0.0001569,15.06381671,546.1811382502146,548.3543302558228,1 45677U 20035W   25354.42777345 -.00000483  00000+0 -13557-4 0  9998,2 45677  53.0576  62.4429 0001569 108.5861 251.5299 15.06381671306789
STARLINK-1394,45679,53.0551,0.0001602,15.23775338,493.36432999697536,495.5663117805889,1 45679U 20035Y   25354.91668980  .01716445  00000+0  64450-1 0  9994,2 45679  53.0551  49.7206 0001602  52.7853   5.5250 15.23775338  5858
STARLINK-1402,45685,53.0542,0.0004371,15.31788283,467.4833117262342,473.47036994589325,1 45685U 20035AE  25354.78854758  .00037827  00000+0  12209-2 0  9991,2 45685  53.0542  35.4419 0004371 334.9488  25.1299 15.31788283307205
STARLINK-1404,45686,53.0556,0.0001235,15.06390452,546.385537176744,548.0961054986137,1 45686U 20035AF  25354.45080859  .00001169  00000+0  97352-4 0  9993,2 45686  53.0556  52.3389 0001235  82.1930 277.9199 15.06390452306939
STARLINK-1413,45689,53.0567,0.0001289,15.06393777,546.3379507150739,548.1233104902431,1 45689U 20035AJ  25354.60192851  .00001480  00000+0  11828-3 0  9998,2 45689  53.0567  51.6582 0001289 101.0907 259.0227 15.06393777306863
STARLINK-1417,45693,53.054,0.0002673,15.07961246,540.5808249354968,544.2805604240029,1 45693U 20035AN  25353.18913870  .00010567  00000+0  69737-3 0  9995,2 45693  53.0540  57.8345 0002673   6.4475 353.6549 15.07961246306737
STARLINK-1420,45695,53.0546,0.000149,15.06396762,546.1896035458858,548.2533603735092,1 45695U 20035AQ  25354.40009634  .00000706  00000+0  66267-4 0  9997,2 45695  53.0546  32.5532 0001490  92.5181 267.5979 15.06396762307206
STARLINK-1422,45696,53.0551,0.0001013,15.06397289,546.5183281246782,547.9214054258873,1 45696U 20035AR  25354.34391578  .00004724  00000+0  33582-3 0  9999,2 45696  53.0551  52.8180 0001013 100.7333 259.3770 15.06397289306908
STARLINK-1351,45697,53.0549,0.0001631,15.06402261,546.0751050880108,548.334151527165,1 45697U 20035AS  25354.12091372  .00005680  00000+0  39990-3 0  9996,2 45697  53.0549  33.8192 0001631  76.9722 283.1450 15.06402261307166
STARLINK-1398,45699,53.0488,0.0004569,15.61085707,381.4298672013656,387.6095829167243,1 45699U 20035AU  25354.91668980  .00166101  00000+0  19014-2 0  9990,2 45699  53.0488 332.1509 0004569  44.1179 194.7737 15.61085707  5997
STARLINK-1400,45700,53.0563,0.000138,15.06396108,546.2677866362883,548.1791861305301,1 45700U 20035AV  25354.82492575  .00000429  00000+0  47716-4 0  9990,2 45700  53.0563  30.6551 0001380  88.8027 271.3120 15.06396108307268
STARLINK-1403,45701,53.0555,0.0001466,15.06391704,546.2217242740535,548.2522439261929,1 45701U 20035AW  25354.38998775 -.00001181  00000+0 -60385-4 0  9990,2 45701  53.0555  32.6129 0001466  87.7618 272.3539 15.06391704307196
STARLINK-1407,45703,53.0416,0.0007055,15.45722459,424.45348039157125,434.05871205033964,1 45703U 20035AY  25354.13613906  .00014268  00000+0  29861-3 0  9996,2 45703  53.0416 339.1071 0007055 210.0566 150.0036 15.45722459307932
STARLINK-1411,45706,53.0502,0.0001413,15.49431035,417.4290414379293,419.3497397959163,1 45706U 20035BB  25354.91668980  .00192419  00000+0  33684-2 0  9999,2 45706  53.0502   2.4337 0001413  80.4871 329.2630 15.49431035  5842
STARLINK-1423,45710,53.0564,0.0001541,15.06391767,546.169590911235,548.3039911136257,1 45710U 20035BF  25354.81387544 -.00000503  00000+0 -14845-4 0  9991,2 45710  53.0564  30.7074 0001541  94.7687 265.3478 15.06391767307263
STARLINK-1433,45711,53.0546,0.0001344,15.06392439,546.3039614505196,548.1655013719237,1 45711U 20035BG  25354.39735743  .00000543  00000+0  55321-4 0  9999,2 45711  53.0546  32.5756 0001344  92.7665 267.3478 15.06392439307197
STARLINK-1434,45712,53.0493,0.0001817,15.18958977,507.73416727137374,510.23694760874605,1 45712U 20035BH  25354.40111491  .00020205  00000+0  96725-3 0  9999,2 45712  53.0493  24.9406 0001817 261.1089  98.9700 15.18958977307311
STARLINK-1465,45731,53.0544,0.0001756,15.06407542,545.9723557431935,548.4045300387361,1 45731U 20038B   25353.96610159 -.00000427  00000+0 -97449-5 0  9990,2 45731  53.0544 234.5084 0001756  97.5419 262.5770 15.06407542304171
STARLINK-1471,45735,53.0499,0.0001409,15.43395266,435.13722479200806,437.05747603195505,1 45735U 20038F   25354.84200322  .00011017  00000+0  25171-3 0  9995,2 45735  53.0499 158.1076 0001409  99.8628 260.2536 15.43395266305332
STARLINK-1474,45738,53.0335,0.000121,15.7726048,337.3937289910564,339.01908409544103,1 45738U 20038J   25352.59687740  .00105180  00000+0  62377-3 0  9995,2 45738  53.0335 115.6740 0001210  54.6473 305.4660 15.77260480305726
STARLINK-1480,45741,53.0532,0.000113,15.19455543,506.7069020236968,508.2630525905688,1 45741U 20038M   25354.91668980  .00057322  00000+0  26641-2 0  9999,2 45741  53.0532 229.8818 0001130  37.1507   7.4888 15.19455543  5841
STARLINK-1500,45744,53.0374,0.0002346,15.30263754,473.41696633695665,476.63246981507746,1 45744U 20038Q   25354.57038373  .00010616  00000+0  36929-3 0  9997,2 45744  53.0374 202.5900 0002346  63.6058 296.5182 15.30263754304689
STARLINK-1504,45746,53.0259,0.000207,15.46155693,426.57554521747807,429.39327948219125,1 45746U 20038S   25354.77344183  .00082936  00000+0  16549-2 0  9999,2 45746  53.0259 161.1908 0002070 130.5132 229.6054 15.46155693305272
STARLINK-1506,45747,53.0688,0.000292,15.23434994,493.4817695305974,497.49596703767565,1 45747U 20038T   25354.80893341  .00012607  00000+0  53544-3 0  9994,2 45747  53.0688 206.4594 0002920  61.9368 298.1924 15.23434994304652
STARLINK-1464,45751,53.0539,0.0001418,15.06399204,546.2319827932524,548.1960123361614,1 45751U 20038X   25354.81202757  .00001022  00000+0  87489-4 0  9990,2 45751  53.0539 210.7135 0001418 103.4361 256.6786 15.06399204304590
STARLINK-1477,45754,53.0509,0.0007041,15.09361599,533.2797712947931,543.0192859844246,1 45754U 20038AA  25353.90847009  .00013596  00000+0  85801-3 0  9991,2 45754  53.0509 214.1792 0007041 114.4947 245.6779 15.09361599304462
STARLINK-1478,45755,53.0534,0.0001601,15.06394174,546.1206626838712,548.3381650095844,1 45755U 20038AB  25354.77885634  .00000531  00000+0  54532-4 0  9997,2 45755  53.0534 210.8565 0001601  97.9293 262.1878 15.06394174304575
STARLINK-1484,45756,53.0126,0.000119,15.71059162,355.0673816945982,356.6700750579512,1 45756U 20038AC  25353.46747447  .00071071  00000+0  55438-3 0  9994,2 45756  53.0126 101.3461 0001190   4.0249 356.0776 15.71059162305999
STARLINK-1493,45759,53.0531,0.0001549,15.06400322,546.1378347160735,548.2833073935863,1 45759U 20038AF  25354.03797467  .00000881  00000+0  78042-4 0  9996,2 45759  53.0531 214.1859 0001549  91.7204 268.3963 15.06400322304468
STARLINK-1494,45760,53.0507,0.0004517,15.55994195,396.20281400251224,402.3255182159746,1 45760U 20038AG  25354.77355126  .00028059  00000+0  40166-3 0  9993,2 45760  53.0507 179.1045 0004517 162.1811 197.9358 15.55994195305034
STARLINK-1502,45764,53.0543,0.0001619,15.06397912,546.0967423973443,548.3391723325385,1 45764U 20038AL  25354.80096766  .00000617  00000+0  60314-4 0  9991,2 45764  53.0543 210.7633 0001619  93.8359 266.2815 15.06397912304598
